<?xml version="1.0" encoding="UTF-8"?>
<gpx creator="blackbox_decode v8.0.0 INAV c4f2026" version="1.1" xmlns="http://www.topografix.com/GPX/1/1" xmlns:xsi="http://www.w3.org/2001/XMLSchema-instance" xsi:schemaLocation="http://www.topografix.com/GPX/1/1 http://www.topografix.com/GPX/1/1/gpx.xsd">
<metadata><name>Blackbox flight log</name>
 <link href="https://github.com/iNavFlight/blackbox-tools">
 <text>INAV Blackbox Tools</text>
 </link>
</metadata>
<trk><name>Blackbox flight log</name><trkseg>
  <trkpt lat="37.4117138" lon="-121.9947197"><ele>-1</ele><time>2026-09-07T18:09:40.150519Z</time></trkpt>
  <trkpt lat="37.4117138" lon="-121.9947197"><ele>-1</ele><time>2026-09-07T18:09:40.158377Z</time></trkpt>
  <trkpt lat="37.4117138" lon="-121.9947198"><ele>-1</ele><time>2026-09-07T18:09:40.202005Z</time></trkpt>
  <trkpt lat="37.4117137" lon="-121.9947198"><ele>-1</ele><time>2026-09-07T18:09:40.302981Z</time></trkpt>
  <trkpt lat="37.4117136" lon="-121.9947198"><ele>-1</ele><time>2026-09-07T18:09:40.383895Z</time></trkpt>
  <trkpt lat="37.4117135" lon="-121.9947198"><ele>-1</ele><time>2026-09-07T18:09:40.584859Z</time></trkpt>
  <trkpt lat="37.4117135" lon="-121.9947199"><ele>-1</ele><time>2026-09-07T18:09:40.686099Z</time></trkpt>
  <trkpt lat="37.4117134" lon="-121.9947200"><ele>-1</ele><time>2026-09-07T18:09:40.786895Z</time></trkpt>
  <trkpt lat="37.4117133" lon="-121.9947202"><ele>-1</ele><time>2026-09-07T18:09:40.887423Z</time></trkpt>
  <trkpt lat="37.4117133" lon="-121.9947203"><ele>-1</ele><time>2026-09-07T18:09:40.988154Z</time></trkpt>
  <trkpt lat="37.4117133" lon="-121.9947204"><ele>-1</ele><time>2026-09-07T18:09:41.189814Z</time></trkpt>
  <trkpt lat="37.4117132" lon="-121.9947205"><ele>-1</ele><time>2026-09-07T18:09:41.290442Z</time></trkpt>
  <trkpt lat="37.4117131" lon="-121.9947205"><ele>-1</ele><time>2026-09-07T18:09:41.391305Z</time></trkpt>
  <trkpt lat="37.4117130" lon="-121.9947205"><ele>-1</ele><time>2026-09-07T18:09:41.491961Z</time></trkpt>
  <trkpt lat="37.4117130" lon="-121.9947206"><ele>-1</ele><time>2026-09-07T18:09:41.592899Z</time></trkpt>
  <trkpt lat="37.4117129" lon="-121.9947207"><ele>-1</ele><time>2026-09-07T18:09:41.693848Z</time></trkpt>
  <trkpt lat="37.4117129" lon="-121.9947209"><ele>-1</ele><time>2026-09-07T18:09:41.794990Z</time></trkpt>
  <trkpt lat="37.4117129" lon="-121.9947210"><ele>-1</ele><time>2026-09-07T18:09:41.997353Z</time></trkpt>
  <trkpt lat="37.4117129" lon="-121.9947211"><ele>-1</ele><time>2026-09-07T18:09:42.098104Z</time></trkpt>
  <trkpt lat="37.4117128" lon="-121.9947212"><ele>-1</ele><time>2026-09-07T18:09:42.198561Z</time></trkpt>
  <trkpt lat="37.4117128" lon="-121.9947212"><ele>-1</ele><time>2026-09-07T18:09:42.294218Z</time></trkpt>
  <trkpt lat="37.4117129" lon="-121.9947213"><ele>-1</ele><time>2026-09-07T18:09:42.299448Z</time></trkpt>
  <trkpt lat="37.4117128" lon="-121.9947214"><ele>-1</ele><time>2026-09-07T18:09:42.400602Z</time></trkpt>
  <trkpt lat="37.4117128" lon="-121.9947215"><ele>-1</ele><time>2026-09-07T18:09:42.582027Z</time></trkpt>
  <trkpt lat="37.4117127" lon="-121.9947215"><ele>-1</ele><time>2026-09-07T18:09:42.783697Z</time></trkpt>
  <trkpt lat="37.4117127" lon="-121.9947216"><ele>-1</ele><time>2026-09-07T18:09:42.884943Z</time></trkpt>
  <trkpt lat="37.4117126" lon="-121.9947216"><ele>-1</ele><time>2026-09-07T18:09:42.985511Z</time></trkpt>
  <trkpt lat="37.4117125" lon="-121.9947216"><ele>-1</ele><time>2026-09-07T18:09:43.086614Z</time></trkpt>
  <trkpt lat="37.4117124" lon="-121.9947217"><ele>-1</ele><time>2026-09-07T18:09:43.187751Z</time></trkpt>
  <trkpt lat="37.4117123" lon="-121.9947217"><ele>-1</ele><time>2026-09-07T18:09:43.288826Z</time></trkpt>
  <trkpt lat="37.4117122" lon="-121.9947217"><ele>-1</ele><time>2026-09-07T18:09:43.389488Z</time></trkpt>
  <trkpt lat="37.4117123" lon="-121.9947217"><ele>-1</ele><time>2026-09-07T18:09:43.489657Z</time></trkpt>
  <trkpt lat="37.4117125" lon="-121.9947216"><ele>-1</ele><time>2026-09-07T18:09:43.590127Z</time></trkpt>
  <trkpt lat="37.4117126" lon="-121.9947215"><ele>-1</ele><time>2026-09-07T18:09:43.690387Z</time></trkpt>
  <trkpt lat="37.4117126" lon="-121.9947214"><ele>-1</ele><time>2026-09-07T18:09:43.791064Z</time></trkpt>
  <trkpt lat="37.4117127" lon="-121.9947215"><ele>-1</ele><time>2026-09-07T18:09:43.891906Z</time></trkpt>
  <trkpt lat="37.4117128" lon="-121.9947215"><ele>-1</ele><time>2026-09-07T18:09:44.294005Z</time></trkpt>
  <trkpt lat="37.4117128" lon="-121.9947215"><ele>0</ele><time>2026-09-07T18:09:44.414888Z</time></trkpt>
  <trkpt lat="37.4117129" lon="-121.9947215"><ele>0</ele><time>2026-09-07T18:09:44.495187Z</time></trkpt>
  <trkpt lat="37.4117129" lon="-121.9947216"><ele>0</ele><time>2026-09-07T18:09:44.696272Z</time></trkpt>
  <trkpt lat="37.4117128" lon="-121.9947217"><ele>0</ele><time>2026-09-07T18:09:44.797001Z</time></trkpt>
  <trkpt lat="37.4117126" lon="-121.9947218"><ele>0</ele><time>2026-09-07T18:09:44.897067Z</time></trkpt>
  <trkpt lat="37.4117126" lon="-121.9947219"><ele>0</ele><time>2026-09-07T18:09:44.997568Z</time></trkpt>
  <trkpt lat="37.4117126" lon="-121.9947220"><ele>0</ele><time>2026-09-07T18:09:45.097791Z</time></trkpt>
  <trkpt lat="37.4117127" lon="-121.9947219"><ele>0</ele><time>2026-09-07T18:09:45.198346Z</time></trkpt>
  <trkpt lat="37.4117129" lon="-121.9947219"><ele>0</ele><time>2026-09-07T18:09:45.298761Z</time></trkpt>
  <trkpt lat="37.4117131" lon="-121.9947218"><ele>0</ele><time>2026-09-07T18:09:45.479931Z</time></trkpt>
  <trkpt lat="37.4117130" lon="-121.9947219"><ele>0</ele><time>2026-09-07T18:09:45.580156Z</time></trkpt>
  <trkpt lat="37.4117129" lon="-121.9947221"><ele>0</ele><time>2026-09-07T18:09:45.680616Z</time></trkpt>
  <trkpt lat="37.4117129" lon="-121.9947222"><ele>0</ele><time>2026-09-07T18:09:45.781232Z</time></trkpt>
  <trkpt lat="37.4117128" lon="-121.9947222"><ele>0</ele><time>2026-09-07T18:09:45.982406Z</time></trkpt>
  <trkpt lat="37.4117127" lon="-121.9947223"><ele>0</ele><time>2026-09-07T18:09:46.083632Z</time></trkpt>
  <trkpt lat="37.4117128" lon="-121.9947223"><ele>0</ele><time>2026-09-07T18:09:46.184251Z</time></trkpt>
  <trkpt lat="37.4117128" lon="-121.9947224"><ele>0</ele><time>2026-09-07T18:09:46.486075Z</time></trkpt>
  <trkpt lat="37.4117128" lon="-121.9947224"><ele>0</ele><time>2026-09-07T18:09:46.524249Z</time></trkpt>
  <trkpt lat="37.4117128" lon="-121.9947225"><ele>0</ele><time>2026-09-07T18:09:46.586590Z</time></trkpt>
  <trkpt lat="37.4117128" lon="-121.9947226"><ele>0</ele><time>2026-09-07T18:09:46.686865Z</time></trkpt>
  <trkpt lat="37.4117130" lon="-121.9947226"><ele>0</ele><time>2026-09-07T18:09:46.787376Z</time></trkpt>
  <trkpt lat="37.4117131" lon="-121.9947225"><ele>0</ele><time>2026-09-07T18:09:46.888746Z</time></trkpt>
  <trkpt lat="37.4117131" lon="-121.9947226"><ele>0</ele><time>2026-09-07T18:09:47.089680Z</time></trkpt>
  <trkpt lat="37.4117132" lon="-121.9947226"><ele>0</ele><time>2026-09-07T18:09:47.191363Z</time></trkpt>
  <trkpt lat="37.4117134" lon="-121.9947225"><ele>0</ele><time>2026-09-07T18:09:47.291545Z</time></trkpt>
  <trkpt lat="37.4117135" lon="-121.9947225"><ele>0</ele><time>2026-09-07T18:09:47.492129Z</time></trkpt>
  <trkpt lat="37.4117136" lon="-121.9947224"><ele>0</ele><time>2026-09-07T18:09:47.593098Z</time></trkpt>
  <trkpt lat="37.4117137" lon="-121.9947223"><ele>0</ele><time>2026-09-07T18:09:47.694009Z</time></trkpt>
  <trkpt lat="37.4117137" lon="-121.9947224"><ele>0</ele><time>2026-09-07T18:09:48.095252Z</time></trkpt>
  <trkpt lat="37.4117135" lon="-121.9947225"><ele>0</ele><time>2026-09-07T18:09:48.295917Z</time></trkpt>
  <trkpt lat="37.4117134" lon="-121.9947227"><ele>0</ele><time>2026-09-07T18:09:48.376476Z</time></trkpt>
  <trkpt lat="37.4117131" lon="-121.9947229"><ele>0</ele><time>2026-09-07T18:09:48.477095Z</time></trkpt>
  <trkpt lat="37.4117130" lon="-121.9947229"><ele>0</ele><time>2026-09-07T18:09:48.577313Z</time></trkpt>
  <trkpt lat="37.4117130" lon="-121.9947229"><ele>0</ele><time>2026-09-07T18:09:48.631766Z</time></trkpt>
  <trkpt lat="37.4117130" lon="-121.9947231"><ele>0</ele><time>2026-09-07T18:09:48.677676Z</time></trkpt>
  <trkpt lat="37.4117129" lon="-121.9947231"><ele>0</ele><time>2026-09-07T18:09:48.878407Z</time></trkpt>
  <trkpt lat="37.4117127" lon="-121.9947233"><ele>0</ele><time>2026-09-07T18:09:49.179666Z</time></trkpt>
  <trkpt lat="37.4117126" lon="-121.9947234"><ele>0</ele><time>2026-09-07T18:09:49.279914Z</time></trkpt>
  <trkpt lat="37.4117125" lon="-121.9947235"><ele>0</ele><time>2026-09-07T18:09:49.380292Z</time></trkpt>
  <trkpt lat="37.4117126" lon="-121.9947234"><ele>0</ele><time>2026-09-07T18:09:49.480833Z</time></trkpt>
  <trkpt lat="37.4117126" lon="-121.9947235"><ele>0</ele><time>2026-09-07T18:09:49.580952Z</time></trkpt>
  <trkpt lat="37.4117126" lon="-121.9947236"><ele>0</ele><time>2026-09-07T18:09:49.681369Z</time></trkpt>
  <trkpt lat="37.4117124" lon="-121.9947237"><ele>0</ele><time>2026-09-07T18:09:49.782270Z</time></trkpt>
  <trkpt lat="37.4117123" lon="-121.9947239"><ele>-1</ele><time>2026-09-07T18:09:49.882768Z</time></trkpt>
  <trkpt lat="37.4117122" lon="-121.9947240"><ele>-1</ele><time>2026-09-07T18:09:49.983052Z</time></trkpt>
  <trkpt lat="37.4117121" lon="-121.9947241"><ele>-1</ele><time>2026-09-07T18:09:50.083286Z</time></trkpt>
  <trkpt lat="37.4117122" lon="-121.9947242"><ele>-1</ele><time>2026-09-07T18:09:50.183848Z</time></trkpt>
  <trkpt lat="37.4117122" lon="-121.9947243"><ele>0</ele><time>2026-09-07T18:09:50.284343Z</time></trkpt>
  <trkpt lat="37.4117120" lon="-121.9947245"><ele>-1</ele><time>2026-09-07T18:09:50.384684Z</time></trkpt>
  <trkpt lat="37.4117119" lon="-121.9947246"><ele>-1</ele><time>2026-09-07T18:09:50.485077Z</time></trkpt>
  <trkpt lat="37.4117118" lon="-121.9947247"><ele>-1</ele><time>2026-09-07T18:09:50.586180Z</time></trkpt>
  <trkpt lat="37.4117119" lon="-121.9947247"><ele>-1</ele><time>2026-09-07T18:09:50.686329Z</time></trkpt>
  <trkpt lat="37.4117119" lon="-121.9947247"><ele>-1</ele><time>2026-09-07T18:09:50.742210Z</time></trkpt>
  <trkpt lat="37.4117119" lon="-121.9947248"><ele>-1</ele><time>2026-09-07T18:09:50.786374Z</time></trkpt>
  <trkpt lat="37.4117120" lon="-121.9947248"><ele>0</ele><time>2026-09-07T18:09:50.886654Z</time></trkpt>
  <trkpt lat="37.4117120" lon="-121.9947249"><ele>0</ele><time>2026-09-07T18:09:51.188277Z</time></trkpt>
  <trkpt lat="37.4117120" lon="-121.9947250"><ele>0</ele><time>2026-09-07T18:09:51.490258Z</time></trkpt>
  <trkpt lat="37.4117119" lon="-121.9947251"><ele>0</ele><time>2026-09-07T18:09:51.691829Z</time></trkpt>
  <trkpt lat="37.4117120" lon="-121.9947251"><ele>0</ele><time>2026-09-07T18:09:51.791708Z</time></trkpt>
  <trkpt lat="37.4117119" lon="-121.9947252"><ele>0</ele><time>2026-09-07T18:09:51.892544Z</time></trkpt>
  <trkpt lat="37.4117119" lon="-121.9947253"><ele>0</ele><time>2026-09-07T18:09:52.073398Z</time></trkpt>
  <trkpt lat="37.4117119" lon="-121.9947254"><ele>0</ele><time>2026-09-07T18:09:52.173747Z</time></trkpt>
  <trkpt lat="37.4117119" lon="-121.9947256"><ele>0</ele><time>2026-09-07T18:09:52.274211Z</time></trkpt>
  <trkpt lat="37.4117118" lon="-121.9947257"><ele>0</ele><time>2026-09-07T18:09:52.374905Z</time></trkpt>
  <trkpt lat="37.4117118" lon="-121.9947259"><ele>0</ele><time>2026-09-07T18:09:52.474953Z</time></trkpt>
  <trkpt lat="37.4117117" lon="-121.9947259"><ele>0</ele><time>2026-09-07T18:09:52.575811Z</time></trkpt>
  <trkpt lat="37.4117117" lon="-121.9947258"><ele>0</ele><time>2026-09-07T18:09:52.676420Z</time></trkpt>
  <trkpt lat="37.4117116" lon="-121.9947259"><ele>0</ele><time>2026-09-07T18:09:52.777188Z</time></trkpt>
  <trkpt lat="37.4117116" lon="-121.9947259"><ele>0</ele><time>2026-09-07T18:09:52.853402Z</time></trkpt>
  <trkpt lat="37.4117114" lon="-121.9947261"><ele>0</ele><time>2026-09-07T18:09:52.877890Z</time></trkpt>
  <trkpt lat="37.4117112" lon="-121.9947263"><ele>0</ele><time>2026-09-07T18:09:52.978525Z</time></trkpt>
  <trkpt lat="37.4117109" lon="-121.9947265"><ele>0</ele><time>2026-09-07T18:09:53.079184Z</time></trkpt>
  <trkpt lat="37.4117107" lon="-121.9947267"><ele>0</ele><time>2026-09-07T18:09:53.179946Z</time></trkpt>
  <trkpt lat="37.4117106" lon="-121.9947268"><ele>0</ele><time>2026-09-07T18:09:53.280788Z</time></trkpt>
  <trkpt lat="37.4117105" lon="-121.9947270"><ele>-1</ele><time>2026-09-07T18:09:53.381017Z</time></trkpt>
  <trkpt lat="37.4117103" lon="-121.9947271"><ele>-1</ele><time>2026-09-07T18:09:53.481359Z</time></trkpt>
  <trkpt lat="37.4117104" lon="-121.9947272"><ele>-1</ele><time>2026-09-07T18:09:53.581844Z</time></trkpt>
  <trkpt lat="37.4117103" lon="-121.9947272"><ele>-1</ele><time>2026-09-07T18:09:53.682621Z</time></trkpt>
  <trkpt lat="37.4117103" lon="-121.9947273"><ele>-1</ele><time>2026-09-07T18:09:53.783235Z</time></trkpt>
  <trkpt lat="37.4117102" lon="-121.9947274"><ele>-1</ele><time>2026-09-07T18:09:53.984368Z</time></trkpt>
  <trkpt lat="37.4117102" lon="-121.9947275"><ele>-1</ele><time>2026-09-07T18:09:54.084993Z</time></trkpt>
  <trkpt lat="37.4117101" lon="-121.9947276"><ele>-1</ele><time>2026-09-07T18:09:54.185143Z</time></trkpt>
  <trkpt lat="37.4117101" lon="-121.9947277"><ele>-1</ele><time>2026-09-07T18:09:54.385626Z</time></trkpt>
  <trkpt lat="37.4117101" lon="-121.9947278"><ele>-1</ele><time>2026-09-07T18:09:54.587208Z</time></trkpt>
  <trkpt lat="37.4117103" lon="-121.9947278"><ele>-1</ele><time>2026-09-07T18:09:54.687945Z</time></trkpt>
  <trkpt lat="37.4117101" lon="-121.9947279"><ele>-1</ele><time>2026-09-07T18:09:54.888309Z</time></trkpt>
  <trkpt lat="37.4117101" lon="-121.9947279"><ele>-1</ele><time>2026-09-07T18:09:54.960807Z</time></trkpt>
  <trkpt lat="37.4117100" lon="-121.9947280"><ele>-1</ele><time>2026-09-07T18:09:54.988696Z</time></trkpt>
  <trkpt lat="37.4117100" lon="-121.9947281"><ele>0</ele><time>2026-09-07T18:09:55.089063Z</time></trkpt>
  <trkpt lat="37.4117101" lon="-121.9947277"><ele>-1</ele><time>2026-09-07T18:09:55.189444Z</time></trkpt>
  <trkpt lat="37.4117101" lon="-121.9947275"><ele>-1</ele><time>2026-09-07T18:09:55.269590Z</time></trkpt>
  <trkpt lat="37.4117100" lon="-121.9947274"><ele>-1</ele><time>2026-09-07T18:09:55.390039Z</time></trkpt>
  <trkpt lat="37.4117100" lon="-121.9947275"><ele>-1</ele><time>2026-09-07T18:09:55.470645Z</time></trkpt>
  <trkpt lat="37.4117100" lon="-121.9947276"><ele>-1</ele><time>2026-09-07T18:09:55.570988Z</time></trkpt>
  <trkpt lat="37.4117099" lon="-121.9947277"><ele>-1</ele><time>2026-09-07T18:09:55.671472Z</time></trkpt>
  <trkpt lat="37.4117100" lon="-121.9947277"><ele>-1</ele><time>2026-09-07T18:09:55.771706Z</time></trkpt>
  <trkpt lat="37.4117101" lon="-121.9947276"><ele>-1</ele><time>2026-09-07T18:09:55.972326Z</time></trkpt>
  <trkpt lat="37.4117102" lon="-121.9947276"><ele>-1</ele><time>2026-09-07T18:09:56.073639Z</time></trkpt>
  <trkpt lat="37.4117102" lon="-121.9947277"><ele>-1</ele><time>2026-09-07T18:09:56.273595Z</time></trkpt>
  <trkpt lat="37.4117101" lon="-121.9947277"><ele>-1</ele><time>2026-09-07T18:09:56.373858Z</time></trkpt>
  <trkpt lat="37.4117100" lon="-121.9947278"><ele>-1</ele><time>2026-09-07T18:09:56.474476Z</time></trkpt>
  <trkpt lat="37.4117099" lon="-121.9947279"><ele>-1</ele><time>2026-09-07T18:09:56.575041Z</time></trkpt>
  <trkpt lat="37.4117097" lon="-121.9947281"><ele>-1</ele><time>2026-09-07T18:09:56.675168Z</time></trkpt>
  <trkpt lat="37.4117094" lon="-121.9947283"><ele>-1</ele><time>2026-09-07T18:09:56.775497Z</time></trkpt>
  <trkpt lat="37.4117091" lon="-121.9947286"><ele>-1</ele><time>2026-09-07T18:09:56.875926Z</time></trkpt>
  <trkpt lat="37.4117090" lon="-121.9947286"><ele>-1</ele><time>2026-09-07T18:09:56.976592Z</time></trkpt>
  <trkpt lat="37.4117090" lon="-121.9947286"><ele>-1</ele><time>2026-09-07T18:09:57.069492Z</time></trkpt>
  <trkpt lat="37.4117089" lon="-121.9947287"><ele>-1</ele><time>2026-09-07T18:09:57.076902Z</time></trkpt>
  <trkpt lat="37.4117088" lon="-121.9947288"><ele>-1</ele><time>2026-09-07T18:09:57.177729Z</time></trkpt>
  <trkpt lat="37.4117088" lon="-121.9947289"><ele>-1</ele><time>2026-09-07T18:09:57.278166Z</time></trkpt>
  <trkpt lat="37.4117086" lon="-121.9947290"><ele>-1</ele><time>2026-09-07T18:09:57.479225Z</time></trkpt>
  <trkpt lat="37.4117086" lon="-121.9947291"><ele>-1</ele><time>2026-09-07T18:09:57.579346Z</time></trkpt>
  <trkpt lat="37.4117085" lon="-121.9947291"><ele>-1</ele><time>2026-09-07T18:09:57.679509Z</time></trkpt>
  <trkpt lat="37.4117087" lon="-121.9947290"><ele>-1</ele><time>2026-09-07T18:09:57.779793Z</time></trkpt>
  <trkpt lat="37.4117086" lon="-121.9947290"><ele>-1</ele><time>2026-09-07T18:09:57.879806Z</time></trkpt>
  <trkpt lat="37.4117085" lon="-121.9947292"><ele>-1</ele><time>2026-09-07T18:09:57.980598Z</time></trkpt>
  <trkpt lat="37.4117084" lon="-121.9947293"><ele>-1</ele><time>2026-09-07T18:09:58.081252Z</time></trkpt>
  <trkpt lat="37.4117081" lon="-121.9947294"><ele>-1</ele><time>2026-09-07T18:09:58.181597Z</time></trkpt>
  <trkpt lat="37.4117081" lon="-121.9947295"><ele>-1</ele><time>2026-09-07T18:09:58.282095Z</time></trkpt>
  <trkpt lat="37.4117080" lon="-121.9947297"><ele>-1</ele><time>2026-09-07T18:09:58.382692Z</time></trkpt>
  <trkpt lat="37.4117078" lon="-121.9947298"><ele>-1</ele><time>2026-09-07T18:09:58.482994Z</time></trkpt>
  <trkpt lat="37.4117077" lon="-121.9947299"><ele>-1</ele><time>2026-09-07T18:09:58.583539Z</time></trkpt>
  <trkpt lat="37.4117077" lon="-121.9947300"><ele>-1</ele><time>2026-09-07T18:09:58.684188Z</time></trkpt>
  <trkpt lat="37.4117078" lon="-121.9947301"><ele>-1</ele><time>2026-09-07T18:09:58.784787Z</time></trkpt>
  <trkpt lat="37.4117077" lon="-121.9947302"><ele>-1</ele><time>2026-09-07T18:09:58.985412Z</time></trkpt>
  <trkpt lat="37.4117077" lon="-121.9947304"><ele>-1</ele><time>2026-09-07T18:09:59.166184Z</time></trkpt>
  <trkpt lat="37.4117077" lon="-121.9947304"><ele>-1</ele><time>2026-09-07T18:09:59.176906Z</time></trkpt>
  <trkpt lat="37.4117079" lon="-121.9947305"><ele>-1</ele><time>2026-09-07T18:09:59.286781Z</time></trkpt>
  <trkpt lat="37.4117078" lon="-121.9947305"><ele>-1</ele><time>2026-09-07T18:09:59.367240Z</time></trkpt>
  <trkpt lat="37.4117078" lon="-121.9947306"><ele>-1</ele><time>2026-09-07T18:09:59.467945Z</time></trkpt>
  <trkpt lat="37.4117078" lon="-121.9947307"><ele>-1</ele><time>2026-09-07T18:09:59.568395Z</time></trkpt>
  <trkpt lat="37.4117077" lon="-121.9947308"><ele>-1</ele><time>2026-09-07T18:09:59.669114Z</time></trkpt>
  <trkpt lat="37.4117078" lon="-121.9947308"><ele>-1</ele><time>2026-09-07T18:09:59.769600Z</time></trkpt>
  <trkpt lat="37.4117079" lon="-121.9947309"><ele>-1</ele><time>2026-09-07T18:09:59.870044Z</time></trkpt>
  <trkpt lat="37.4117077" lon="-121.9947312"><ele>-1</ele><time>2026-09-07T18:10:00.172223Z</time></trkpt>
</trkseg></trk>
</gpx>