<?xml version="1.0" encoding="UTF-8"?>
<gpx creator="blackbox_decode v8.0.0 INAV c4f2026" version="1.1" xmlns="http://www.topografix.com/GPX/1/1" xmlns:xsi="http://www.w3.org/2001/XMLSchema-instance" xsi:schemaLocation="http://www.topografix.com/GPX/1/1 http://www.topografix.com/GPX/1/1/gpx.xsd">
<metadata><name>Blackbox flight log</name>
 <link href="https://github.com/iNavFlight/blackbox-tools">
 <text>INAV Blackbox Tools</text>
 </link>
</metadata>
<trk><name>Blackbox flight log</name><trkseg>
  <trkpt lat="37.4117155" lon="-121.9947204"><ele>-2</ele><time>2026-09-07T18:09:32.782495Z</time></trkpt>
  <trkpt lat="37.4117155" lon="-121.9947204"><ele>-2</ele><time>2026-09-07T18:09:32.790242Z</time></trkpt>
  <trkpt lat="37.4117154" lon="-121.9947205"><ele>-2</ele><time>2026-09-07T18:09:32.992817Z</time></trkpt>
  <trkpt lat="37.4117154" lon="-121.9947206"><ele>-2</ele><time>2026-09-07T18:09:33.093767Z</time></trkpt>
  <trkpt lat="37.4117153" lon="-121.9947207"><ele>-2</ele><time>2026-09-07T18:09:33.195151Z</time></trkpt>
  <trkpt lat="37.4117153" lon="-121.9947208"><ele>-2</ele><time>2026-09-07T18:09:33.396659Z</time></trkpt>
  <trkpt lat="37.4117151" lon="-121.9947209"><ele>-2</ele><time>2026-09-07T18:09:33.497781Z</time></trkpt>
  <trkpt lat="37.4117151" lon="-121.9947210"><ele>-2</ele><time>2026-09-07T18:09:33.801096Z</time></trkpt>
  <trkpt lat="37.4117150" lon="-121.9947211"><ele>-2</ele><time>2026-09-07T18:09:34.002111Z</time></trkpt>
  <trkpt lat="37.4117149" lon="-121.9947212"><ele>-2</ele><time>2026-09-07T18:09:34.203994Z</time></trkpt>
  <trkpt lat="37.4117149" lon="-121.9947213"><ele>-2</ele><time>2026-09-07T18:09:34.304266Z</time></trkpt>
  <trkpt lat="37.4117149" lon="-121.9947212"><ele>-2</ele><time>2026-09-07T18:09:34.505746Z</time></trkpt>
  <trkpt lat="37.4117148" lon="-121.9947211"><ele>-2</ele><time>2026-09-07T18:09:34.706833Z</time></trkpt>
  <trkpt lat="37.4117148" lon="-121.9947212"><ele>-2</ele><time>2026-09-07T18:09:34.807453Z</time></trkpt>
  <trkpt lat="37.4117148" lon="-121.9947211"><ele>-2</ele><time>2026-09-07T18:09:34.888337Z</time></trkpt>
  <trkpt lat="37.4117148" lon="-121.9947211"><ele>-2</ele><time>2026-09-07T18:09:34.929524Z</time></trkpt>
  <trkpt lat="37.4117147" lon="-121.9947212"><ele>-2</ele><time>2026-09-07T18:09:34.989637Z</time></trkpt>
  <trkpt lat="37.4117146" lon="-121.9947212"><ele>-2</ele><time>2026-09-07T18:09:35.090427Z</time></trkpt>
  <trkpt lat="37.4117144" lon="-121.9947213"><ele>-2</ele><time>2026-09-07T18:09:35.190893Z</time></trkpt>
  <trkpt lat="37.4117145" lon="-121.9947213"><ele>-2</ele><time>2026-09-07T18:09:35.292082Z</time></trkpt>
  <trkpt lat="37.4117143" lon="-121.9947213"><ele>-2</ele><time>2026-09-07T18:09:35.392849Z</time></trkpt>
  <trkpt lat="37.4117142" lon="-121.9947213"><ele>-2</ele><time>2026-09-07T18:09:35.595129Z</time></trkpt>
  <trkpt lat="37.4117141" lon="-121.9947212"><ele>-2</ele><time>2026-09-07T18:09:35.896832Z</time></trkpt>
</trkseg></trk>
</gpx>