<?xml version="1.0" encoding="UTF-8"?>
<gpx creator="blackbox_decode v8.0.0 INAV c4f2026" version="1.1" xmlns="http://www.topografix.com/GPX/1/1" xmlns:xsi="http://www.w3.org/2001/XMLSchema-instance" xsi:schemaLocation="http://www.topografix.com/GPX/1/1 http://www.topografix.com/GPX/1/1/gpx.xsd">
<metadata><name>Blackbox flight log</name>
 <link href="https://github.com/iNavFlight/blackbox-tools">
 <text>INAV Blackbox Tools</text>
 </link>
</metadata>
<trk><name>Blackbox flight log</name><trkseg>
  <trkpt lat="37.4114235" lon="-121.9948546"><ele>-14</ele><time>2026-09-07T17:47:04.838501Z</time></trkpt>
  <trkpt lat="37.4114235" lon="-121.9948546"><ele>-14</ele><time>2026-09-07T17:47:04.846440Z</time></trkpt>
  <trkpt lat="37.4114237" lon="-121.9948555"><ele>-14</ele><time>2026-09-07T17:47:04.869564Z</time></trkpt>
  <trkpt lat="37.4114237" lon="-121.9948564"><ele>-13</ele><time>2026-09-07T17:47:04.970965Z</time></trkpt>
  <trkpt lat="37.4114235" lon="-121.9948575"><ele>-13</ele><time>2026-09-07T17:47:05.071987Z</time></trkpt>
  <trkpt lat="37.4114232" lon="-121.9948583"><ele>-13</ele><time>2026-09-07T17:47:05.172463Z</time></trkpt>
  <trkpt lat="37.4114234" lon="-121.9948589"><ele>-14</ele><time>2026-09-07T17:47:05.274019Z</time></trkpt>
  <trkpt lat="37.4114238" lon="-121.9948592"><ele>-14</ele><time>2026-09-07T17:47:05.375233Z</time></trkpt>
  <trkpt lat="37.4114245" lon="-121.9948596"><ele>-14</ele><time>2026-09-07T17:47:05.476267Z</time></trkpt>
  <trkpt lat="37.4114253" lon="-121.9948599"><ele>-14</ele><time>2026-09-07T17:47:05.577341Z</time></trkpt>
  <trkpt lat="37.4114264" lon="-121.9948600"><ele>-14</ele><time>2026-09-07T17:47:05.678116Z</time></trkpt>
  <trkpt lat="37.4114273" lon="-121.9948599"><ele>-14</ele><time>2026-09-07T17:47:05.778600Z</time></trkpt>
  <trkpt lat="37.4114278" lon="-121.9948606"><ele>-14</ele><time>2026-09-07T17:47:05.878958Z</time></trkpt>
  <trkpt lat="37.4114286" lon="-121.9948610"><ele>-14</ele><time>2026-09-07T17:47:05.979575Z</time></trkpt>
  <trkpt lat="37.4114295" lon="-121.9948613"><ele>-14</ele><time>2026-09-07T17:47:06.079960Z</time></trkpt>
  <trkpt lat="37.4114304" lon="-121.9948614"><ele>-14</ele><time>2026-09-07T17:47:06.181128Z</time></trkpt>
  <trkpt lat="37.4114313" lon="-121.9948616"><ele>-14</ele><time>2026-09-07T17:47:06.281295Z</time></trkpt>
  <trkpt lat="37.4114320" lon="-121.9948616"><ele>-14</ele><time>2026-09-07T17:47:06.381930Z</time></trkpt>
  <trkpt lat="37.4114324" lon="-121.9948619"><ele>-14</ele><time>2026-09-07T17:47:06.483651Z</time></trkpt>
  <trkpt lat="37.4114328" lon="-121.9948622"><ele>-14</ele><time>2026-09-07T17:47:06.584265Z</time></trkpt>
  <trkpt lat="37.4114333" lon="-121.9948625"><ele>-14</ele><time>2026-09-07T17:47:06.684506Z</time></trkpt>
  <trkpt lat="37.4114338" lon="-121.9948629"><ele>-14</ele><time>2026-09-07T17:47:06.784906Z</time></trkpt>
  <trkpt lat="37.4114344" lon="-121.9948633"><ele>-14</ele><time>2026-09-07T17:47:06.885935Z</time></trkpt>
  <trkpt lat="37.4114350" lon="-121.9948640"><ele>-14</ele><time>2026-09-07T17:47:06.966560Z</time></trkpt>
  <trkpt lat="37.4114350" lon="-121.9948640"><ele>-14</ele><time>2026-09-07T17:47:06.968607Z</time></trkpt>
  <trkpt lat="37.4114353" lon="-121.9948650"><ele>-14</ele><time>2026-09-07T17:47:07.086902Z</time></trkpt>
  <trkpt lat="37.4114358" lon="-121.9948660"><ele>-14</ele><time>2026-09-07T17:47:07.166988Z</time></trkpt>
  <trkpt lat="37.4114363" lon="-121.9948664"><ele>-14</ele><time>2026-09-07T17:47:07.267441Z</time></trkpt>
  <trkpt lat="37.4114366" lon="-121.9948665"><ele>-14</ele><time>2026-09-07T17:47:07.367787Z</time></trkpt>
  <trkpt lat="37.4114372" lon="-121.9948662"><ele>-14</ele><time>2026-09-07T17:47:07.468213Z</time></trkpt>
  <trkpt lat="37.4114373" lon="-121.9948665"><ele>-14</ele><time>2026-09-07T17:47:07.568822Z</time></trkpt>
  <trkpt lat="37.4114373" lon="-121.9948667"><ele>-14</ele><time>2026-09-07T17:47:07.668901Z</time></trkpt>
  <trkpt lat="37.4114372" lon="-121.9948671"><ele>-14</ele><time>2026-09-07T17:47:07.769249Z</time></trkpt>
  <trkpt lat="37.4114372" lon="-121.9948676"><ele>-14</ele><time>2026-09-07T17:47:07.869816Z</time></trkpt>
  <trkpt lat="37.4114368" lon="-121.9948683"><ele>-14</ele><time>2026-09-07T17:47:07.970242Z</time></trkpt>
  <trkpt lat="37.4114365" lon="-121.9948682"><ele>-14</ele><time>2026-09-07T17:47:08.071168Z</time></trkpt>
  <trkpt lat="37.4114363" lon="-121.9948682"><ele>-14</ele><time>2026-09-07T17:47:08.171809Z</time></trkpt>
  <trkpt lat="37.4114364" lon="-121.9948684"><ele>-14</ele><time>2026-09-07T17:47:08.272352Z</time></trkpt>
  <trkpt lat="37.4114363" lon="-121.9948688"><ele>-14</ele><time>2026-09-07T17:47:08.373447Z</time></trkpt>
  <trkpt lat="37.4114364" lon="-121.9948691"><ele>-14</ele><time>2026-09-07T17:47:08.473907Z</time></trkpt>
  <trkpt lat="37.4114367" lon="-121.9948695"><ele>-14</ele><time>2026-09-07T17:47:08.574559Z</time></trkpt>
  <trkpt lat="37.4114370" lon="-121.9948695"><ele>-14</ele><time>2026-09-07T17:47:08.675794Z</time></trkpt>
  <trkpt lat="37.4114373" lon="-121.9948699"><ele>-14</ele><time>2026-09-07T17:47:08.776416Z</time></trkpt>
  <trkpt lat="37.4114372" lon="-121.9948704"><ele>-14</ele><time>2026-09-07T17:47:08.877275Z</time></trkpt>
  <trkpt lat="37.4114375" lon="-121.9948707"><ele>-14</ele><time>2026-09-07T17:47:08.977878Z</time></trkpt>
  <trkpt lat="37.4114376" lon="-121.9948713"><ele>-14</ele><time>2026-09-07T17:47:09.078398Z</time></trkpt>
  <trkpt lat="37.4114376" lon="-121.9948713"><ele>-14</ele><time>2026-09-07T17:47:09.089837Z</time></trkpt>
  <trkpt lat="37.4114375" lon="-121.9948718"><ele>-14</ele><time>2026-09-07T17:47:09.179326Z</time></trkpt>
  <trkpt lat="37.4114368" lon="-121.9948717"><ele>-14</ele><time>2026-09-07T17:47:09.280254Z</time></trkpt>
  <trkpt lat="37.4114365" lon="-121.9948717"><ele>-14</ele><time>2026-09-07T17:47:09.380957Z</time></trkpt>
  <trkpt lat="37.4114363" lon="-121.9948717"><ele>-14</ele><time>2026-09-07T17:47:09.481449Z</time></trkpt>
  <trkpt lat="37.4114366" lon="-121.9948719"><ele>-14</ele><time>2026-09-07T17:47:09.582344Z</time></trkpt>
  <trkpt lat="37.4114367" lon="-121.9948724"><ele>-14</ele><time>2026-09-07T17:47:09.682804Z</time></trkpt>
  <trkpt lat="37.4114360" lon="-121.9948730"><ele>-14</ele><time>2026-09-07T17:47:09.783802Z</time></trkpt>
  <trkpt lat="37.4114354" lon="-121.9948741"><ele>-14</ele><time>2026-09-07T17:47:09.864696Z</time></trkpt>
  <trkpt lat="37.4114350" lon="-121.9948745"><ele>-14</ele><time>2026-09-07T17:47:09.964939Z</time></trkpt>
  <trkpt lat="37.4114342" lon="-121.9948752"><ele>-14</ele><time>2026-09-07T17:47:10.065606Z</time></trkpt>
  <trkpt lat="37.4114339" lon="-121.9948764"><ele>-13</ele><time>2026-09-07T17:47:10.166445Z</time></trkpt>
  <trkpt lat="37.4114328" lon="-121.9948775"><ele>-13</ele><time>2026-09-07T17:47:10.267230Z</time></trkpt>
  <trkpt lat="37.4114320" lon="-121.9948784"><ele>-13</ele><time>2026-09-07T17:47:10.368658Z</time></trkpt>
  <trkpt lat="37.4114316" lon="-121.9948787"><ele>-13</ele><time>2026-09-07T17:47:10.469485Z</time></trkpt>
  <trkpt lat="37.4114316" lon="-121.9948795"><ele>-13</ele><time>2026-09-07T17:47:10.570065Z</time></trkpt>
  <trkpt lat="37.4114316" lon="-121.9948807"><ele>-12</ele><time>2026-09-07T17:47:10.671528Z</time></trkpt>
  <trkpt lat="37.4114324" lon="-121.9948812"><ele>-12</ele><time>2026-09-07T17:47:10.772482Z</time></trkpt>
  <trkpt lat="37.4114325" lon="-121.9948811"><ele>-12</ele><time>2026-09-07T17:47:10.873273Z</time></trkpt>
  <trkpt lat="37.4114325" lon="-121.9948813"><ele>-12</ele><time>2026-09-07T17:47:10.973906Z</time></trkpt>
  <trkpt lat="37.4114323" lon="-121.9948820"><ele>-12</ele><time>2026-09-07T17:47:11.074432Z</time></trkpt>
  <trkpt lat="37.4114321" lon="-121.9948826"><ele>-12</ele><time>2026-09-07T17:47:11.174791Z</time></trkpt>
  <trkpt lat="37.4114321" lon="-121.9948826"><ele>-12</ele><time>2026-09-07T17:47:11.219673Z</time></trkpt>
  <trkpt lat="37.4114322" lon="-121.9948827"><ele>-12</ele><time>2026-09-07T17:47:11.275931Z</time></trkpt>
  <trkpt lat="37.4114323" lon="-121.9948833"><ele>-12</ele><time>2026-09-07T17:47:11.376380Z</time></trkpt>
  <trkpt lat="37.4114323" lon="-121.9948843"><ele>-11</ele><time>2026-09-07T17:47:11.476818Z</time></trkpt>
  <trkpt lat="37.4114319" lon="-121.9948853"><ele>-11</ele><time>2026-09-07T17:47:11.578339Z</time></trkpt>
  <trkpt lat="37.4114312" lon="-121.9948861"><ele>-11</ele><time>2026-09-07T17:47:11.678852Z</time></trkpt>
  <trkpt lat="37.4114307" lon="-121.9948869"><ele>-11</ele><time>2026-09-07T17:47:11.780069Z</time></trkpt>
  <trkpt lat="37.4114303" lon="-121.9948882"><ele>-11</ele><time>2026-09-07T17:47:11.880511Z</time></trkpt>
  <trkpt lat="37.4114302" lon="-121.9948888"><ele>-11</ele><time>2026-09-07T17:47:11.981474Z</time></trkpt>
  <trkpt lat="37.4114301" lon="-121.9948891"><ele>-11</ele><time>2026-09-07T17:47:12.062104Z</time></trkpt>
  <trkpt lat="37.4114299" lon="-121.9948894"><ele>-11</ele><time>2026-09-07T17:47:12.162927Z</time></trkpt>
  <trkpt lat="37.4114298" lon="-121.9948900"><ele>-11</ele><time>2026-09-07T17:47:12.263354Z</time></trkpt>
  <trkpt lat="37.4114297" lon="-121.9948902"><ele>-11</ele><time>2026-09-07T17:47:12.364118Z</time></trkpt>
  <trkpt lat="37.4114293" lon="-121.9948902"><ele>-11</ele><time>2026-09-07T17:47:12.464863Z</time></trkpt>
  <trkpt lat="37.4114284" lon="-121.9948904"><ele>-11</ele><time>2026-09-07T17:47:12.566103Z</time></trkpt>
  <trkpt lat="37.4114276" lon="-121.9948901"><ele>-11</ele><time>2026-09-07T17:47:12.667059Z</time></trkpt>
  <trkpt lat="37.4114265" lon="-121.9948899"><ele>-11</ele><time>2026-09-07T17:47:12.768271Z</time></trkpt>
  <trkpt lat="37.4114254" lon="-121.9948893"><ele>-11</ele><time>2026-09-07T17:47:12.869373Z</time></trkpt>
  <trkpt lat="37.4114247" lon="-121.9948889"><ele>-11</ele><time>2026-09-07T17:47:12.970454Z</time></trkpt>
  <trkpt lat="37.4114238" lon="-121.9948882"><ele>-11</ele><time>2026-09-07T17:47:13.071412Z</time></trkpt>
  <trkpt lat="37.4114234" lon="-121.9948873"><ele>-11</ele><time>2026-09-07T17:47:13.172508Z</time></trkpt>
  <trkpt lat="37.4114232" lon="-121.9948864"><ele>-11</ele><time>2026-09-07T17:47:13.272931Z</time></trkpt>
  <trkpt lat="37.4114232" lon="-121.9948864"><ele>-11</ele><time>2026-09-07T17:47:13.349342Z</time></trkpt>
  <trkpt lat="37.4114226" lon="-121.9948855"><ele>-11</ele><time>2026-09-07T17:47:13.373928Z</time></trkpt>
  <trkpt lat="37.4114214" lon="-121.9948850"><ele>-11</ele><time>2026-09-07T17:47:13.474786Z</time></trkpt>
  <trkpt lat="37.4114204" lon="-121.9948846"><ele>-11</ele><time>2026-09-07T17:47:13.575954Z</time></trkpt>
  <trkpt lat="37.4114194" lon="-121.9948843"><ele>-10</ele><time>2026-09-07T17:47:13.676534Z</time></trkpt>
  <trkpt lat="37.4114189" lon="-121.9948844"><ele>-10</ele><time>2026-09-07T17:47:13.777138Z</time></trkpt>
  <trkpt lat="37.4114190" lon="-121.9948839"><ele>-10</ele><time>2026-09-07T17:47:13.878280Z</time></trkpt>
  <trkpt lat="37.4114192" lon="-121.9948841"><ele>-10</ele><time>2026-09-07T17:47:13.978966Z</time></trkpt>
  <trkpt lat="37.4114197" lon="-121.9948848"><ele>-10</ele><time>2026-09-07T17:47:14.059582Z</time></trkpt>
  <trkpt lat="37.4114201" lon="-121.9948857"><ele>-10</ele><time>2026-09-07T17:47:14.180957Z</time></trkpt>
  <trkpt lat="37.4114203" lon="-121.9948864"><ele>-10</ele><time>2026-09-07T17:47:14.261801Z</time></trkpt>
  <trkpt lat="37.4114206" lon="-121.9948869"><ele>-9</ele><time>2026-09-07T17:47:14.362051Z</time></trkpt>
  <trkpt lat="37.4114206" lon="-121.9948868"><ele>-9</ele><time>2026-09-07T17:47:14.462524Z</time></trkpt>
  <trkpt lat="37.4114208" lon="-121.9948870"><ele>-9</ele><time>2026-09-07T17:47:14.563066Z</time></trkpt>
  <trkpt lat="37.4114214" lon="-121.9948873"><ele>-9</ele><time>2026-09-07T17:47:14.663625Z</time></trkpt>
  <trkpt lat="37.4114213" lon="-121.9948873"><ele>-9</ele><time>2026-09-07T17:47:14.764411Z</time></trkpt>
  <trkpt lat="37.4114218" lon="-121.9948868"><ele>-9</ele><time>2026-09-07T17:47:14.865532Z</time></trkpt>
  <trkpt lat="37.4114217" lon="-121.9948864"><ele>-9</ele><time>2026-09-07T17:47:14.966193Z</time></trkpt>
  <trkpt lat="37.4114206" lon="-121.9948868"><ele>-8</ele><time>2026-09-07T17:47:15.067234Z</time></trkpt>
  <trkpt lat="37.4114193" lon="-121.9948877"><ele>-8</ele><time>2026-09-07T17:47:15.168327Z</time></trkpt>
  <trkpt lat="37.4114184" lon="-121.9948882"><ele>-8</ele><time>2026-09-07T17:47:15.269263Z</time></trkpt>
  <trkpt lat="37.4114180" lon="-121.9948887"><ele>-8</ele><time>2026-09-07T17:47:15.369385Z</time></trkpt>
  <trkpt lat="37.4114180" lon="-121.9948888"><ele>-8</ele><time>2026-09-07T17:47:15.470165Z</time></trkpt>
  <trkpt lat="37.4114180" lon="-121.9948888"><ele>-8</ele><time>2026-09-07T17:47:15.481555Z</time></trkpt>
  <trkpt lat="37.4114185" lon="-121.9948893"><ele>-8</ele><time>2026-09-07T17:47:15.571349Z</time></trkpt>
  <trkpt lat="37.4114190" lon="-121.9948897"><ele>-8</ele><time>2026-09-07T17:47:15.672174Z</time></trkpt>
  <trkpt lat="37.4114190" lon="-121.9948902"><ele>-8</ele><time>2026-09-07T17:47:15.773659Z</time></trkpt>
  <trkpt lat="37.4114191" lon="-121.9948908"><ele>-8</ele><time>2026-09-07T17:47:15.873851Z</time></trkpt>
  <trkpt lat="37.4114192" lon="-121.9948904"><ele>-8</ele><time>2026-09-07T17:47:15.974874Z</time></trkpt>
  <trkpt lat="37.4114189" lon="-121.9948898"><ele>-8</ele><time>2026-09-07T17:47:16.075687Z</time></trkpt>
  <trkpt lat="37.4114186" lon="-121.9948891"><ele>-8</ele><time>2026-09-07T17:47:16.176118Z</time></trkpt>
  <trkpt lat="37.4114188" lon="-121.9948887"><ele>-8</ele><time>2026-09-07T17:47:16.277214Z</time></trkpt>
  <trkpt lat="37.4114187" lon="-121.9948889"><ele>-8</ele><time>2026-09-07T17:47:16.377710Z</time></trkpt>
  <trkpt lat="37.4114181" lon="-121.9948901"><ele>-8</ele><time>2026-09-07T17:47:16.458068Z</time></trkpt>
  <trkpt lat="37.4114181" lon="-121.9948909"><ele>-7</ele><time>2026-09-07T17:47:16.558779Z</time></trkpt>
  <trkpt lat="37.4114183" lon="-121.9948918"><ele>-7</ele><time>2026-09-07T17:47:16.660094Z</time></trkpt>
  <trkpt lat="37.4114186" lon="-121.9948925"><ele>-7</ele><time>2026-09-07T17:47:16.760991Z</time></trkpt>
  <trkpt lat="37.4114184" lon="-121.9948926"><ele>-7</ele><time>2026-09-07T17:47:16.861825Z</time></trkpt>
  <trkpt lat="37.4114181" lon="-121.9948929"><ele>-7</ele><time>2026-09-07T17:47:16.962729Z</time></trkpt>
  <trkpt lat="37.4114184" lon="-121.9948927"><ele>-7</ele><time>2026-09-07T17:47:17.063541Z</time></trkpt>
  <trkpt lat="37.4114189" lon="-121.9948923"><ele>-7</ele><time>2026-09-07T17:47:17.164385Z</time></trkpt>
  <trkpt lat="37.4114192" lon="-121.9948921"><ele>-7</ele><time>2026-09-07T17:47:17.265277Z</time></trkpt>
  <trkpt lat="37.4114192" lon="-121.9948919"><ele>-7</ele><time>2026-09-07T17:47:17.365966Z</time></trkpt>
  <trkpt lat="37.4114191" lon="-121.9948913"><ele>-8</ele><time>2026-09-07T17:47:17.466935Z</time></trkpt>
  <trkpt lat="37.4114190" lon="-121.9948904"><ele>-8</ele><time>2026-09-07T17:47:17.567526Z</time></trkpt>
  <trkpt lat="37.4114190" lon="-121.9948904"><ele>-8</ele><time>2026-09-07T17:47:17.613555Z</time></trkpt>
  <trkpt lat="37.4114193" lon="-121.9948891"><ele>-8</ele><time>2026-09-07T17:47:17.667992Z</time></trkpt>
  <trkpt lat="37.4114196" lon="-121.9948889"><ele>-8</ele><time>2026-09-07T17:47:17.769215Z</time></trkpt>
  <trkpt lat="37.4114202" lon="-121.9948888"><ele>-8</ele><time>2026-09-07T17:47:17.870145Z</time></trkpt>
  <trkpt lat="37.4114206" lon="-121.9948884"><ele>-8</ele><time>2026-09-07T17:47:17.970485Z</time></trkpt>
  <trkpt lat="37.4114207" lon="-121.9948879"><ele>-8</ele><time>2026-09-07T17:47:18.070602Z</time></trkpt>
  <trkpt lat="37.4114214" lon="-121.9948870"><ele>-8</ele><time>2026-09-07T17:47:18.172230Z</time></trkpt>
  <trkpt lat="37.4114225" lon="-121.9948862"><ele>-9</ele><time>2026-09-07T17:47:18.272541Z</time></trkpt>
  <trkpt lat="37.4114226" lon="-121.9948860"><ele>-8</ele><time>2026-09-07T17:47:18.373751Z</time></trkpt>
  <trkpt lat="37.4114223" lon="-121.9948864"><ele>-8</ele><time>2026-09-07T17:47:18.474493Z</time></trkpt>
  <trkpt lat="37.4114214" lon="-121.9948862"><ele>-8</ele><time>2026-09-07T17:47:18.555254Z</time></trkpt>
  <trkpt lat="37.4114206" lon="-121.9948863"><ele>-8</ele><time>2026-09-07T17:47:18.656123Z</time></trkpt>
  <trkpt lat="37.4114204" lon="-121.9948863"><ele>-8</ele><time>2026-09-07T17:47:18.756938Z</time></trkpt>
  <trkpt lat="37.4114198" lon="-121.9948865"><ele>-8</ele><time>2026-09-07T17:47:18.857727Z</time></trkpt>
  <trkpt lat="37.4114190" lon="-121.9948869"><ele>-8</ele><time>2026-09-07T17:47:18.958325Z</time></trkpt>
  <trkpt lat="37.4114186" lon="-121.9948875"><ele>-7</ele><time>2026-09-07T17:47:19.059391Z</time></trkpt>
  <trkpt lat="37.4114189" lon="-121.9948880"><ele>-7</ele><time>2026-09-07T17:47:19.160384Z</time></trkpt>
  <trkpt lat="37.4114189" lon="-121.9948879"><ele>-7</ele><time>2026-09-07T17:47:19.261027Z</time></trkpt>
  <trkpt lat="37.4114192" lon="-121.9948877"><ele>-7</ele><time>2026-09-07T17:47:19.361609Z</time></trkpt>
  <trkpt lat="37.4114198" lon="-121.9948880"><ele>-7</ele><time>2026-09-07T17:47:19.462438Z</time></trkpt>
  <trkpt lat="37.4114203" lon="-121.9948882"><ele>-7</ele><time>2026-09-07T17:47:19.562578Z</time></trkpt>
  <trkpt lat="37.4114207" lon="-121.9948883"><ele>-8</ele><time>2026-09-07T17:47:19.662962Z</time></trkpt>
  <trkpt lat="37.4114207" lon="-121.9948883"><ele>-8</ele><time>2026-09-07T17:47:19.743852Z</time></trkpt>
  <trkpt lat="37.4114214" lon="-121.9948885"><ele>-8</ele><time>2026-09-07T17:47:19.763780Z</time></trkpt>
  <trkpt lat="37.4114218" lon="-121.9948887"><ele>-8</ele><time>2026-09-07T17:47:19.864752Z</time></trkpt>
  <trkpt lat="37.4114216" lon="-121.9948889"><ele>-8</ele><time>2026-09-07T17:47:19.965658Z</time></trkpt>
  <trkpt lat="37.4114220" lon="-121.9948890"><ele>-8</ele><time>2026-09-07T17:47:20.066541Z</time></trkpt>
  <trkpt lat="37.4114226" lon="-121.9948888"><ele>-8</ele><time>2026-09-07T17:47:20.167949Z</time></trkpt>
  <trkpt lat="37.4114225" lon="-121.9948888"><ele>-8</ele><time>2026-09-07T17:47:20.269148Z</time></trkpt>
  <trkpt lat="37.4114227" lon="-121.9948886"><ele>-8</ele><time>2026-09-07T17:47:20.369733Z</time></trkpt>
  <trkpt lat="37.4114227" lon="-121.9948889"><ele>-8</ele><time>2026-09-07T17:47:20.470629Z</time></trkpt>
  <trkpt lat="37.4114230" lon="-121.9948897"><ele>-8</ele><time>2026-09-07T17:47:20.571188Z</time></trkpt>
  <trkpt lat="37.4114228" lon="-121.9948899"><ele>-8</ele><time>2026-09-07T17:47:20.671664Z</time></trkpt>
  <trkpt lat="37.4114231" lon="-121.9948893"><ele>-8</ele><time>2026-09-07T17:47:20.772756Z</time></trkpt>
  <trkpt lat="37.4114235" lon="-121.9948888"><ele>-8</ele><time>2026-09-07T17:47:20.873228Z</time></trkpt>
  <trkpt lat="37.4114245" lon="-121.9948880"><ele>-8</ele><time>2026-09-07T17:47:20.974304Z</time></trkpt>
  <trkpt lat="37.4114253" lon="-121.9948865"><ele>-8</ele><time>2026-09-07T17:47:21.054826Z</time></trkpt>
  <trkpt lat="37.4114259" lon="-121.9948856"><ele>-8</ele><time>2026-09-07T17:47:21.155167Z</time></trkpt>
  <trkpt lat="37.4114259" lon="-121.9948858"><ele>-8</ele><time>2026-09-07T17:47:21.255932Z</time></trkpt>
  <trkpt lat="37.4114261" lon="-121.9948866"><ele>-8</ele><time>2026-09-07T17:47:21.356627Z</time></trkpt>
  <trkpt lat="37.4114262" lon="-121.9948876"><ele>-8</ele><time>2026-09-07T17:47:21.458211Z</time></trkpt>
  <trkpt lat="37.4114264" lon="-121.9948877"><ele>-8</ele><time>2026-09-07T17:47:21.559083Z</time></trkpt>
  <trkpt lat="37.4114263" lon="-121.9948879"><ele>-8</ele><time>2026-09-07T17:47:21.660317Z</time></trkpt>
  <trkpt lat="37.4114256" lon="-121.9948875"><ele>-8</ele><time>2026-09-07T17:47:21.761108Z</time></trkpt>
  <trkpt lat="37.4114245" lon="-121.9948869"><ele>-8</ele><time>2026-09-07T17:47:21.861588Z</time></trkpt>
  <trkpt lat="37.4114245" lon="-121.9948869"><ele>-8</ele><time>2026-09-07T17:47:21.874566Z</time></trkpt>
  <trkpt lat="37.4114237" lon="-121.9948864"><ele>-8</ele><time>2026-09-07T17:47:21.962243Z</time></trkpt>
  <trkpt lat="37.4114233" lon="-121.9948862"><ele>-8</ele><time>2026-09-07T17:47:22.063400Z</time></trkpt>
  <trkpt lat="37.4114230" lon="-121.9948859"><ele>-8</ele><time>2026-09-07T17:47:22.164466Z</time></trkpt>
  <trkpt lat="37.4114232" lon="-121.9948858"><ele>-8</ele><time>2026-09-07T17:47:22.266294Z</time></trkpt>
  <trkpt lat="37.4114223" lon="-121.9948858"><ele>-8</ele><time>2026-09-07T17:47:22.366873Z</time></trkpt>
  <trkpt lat="37.4114218" lon="-121.9948854"><ele>-8</ele><time>2026-09-07T17:47:22.467582Z</time></trkpt>
  <trkpt lat="37.4114222" lon="-121.9948853"><ele>-8</ele><time>2026-09-07T17:47:22.568584Z</time></trkpt>
  <trkpt lat="37.4114229" lon="-121.9948852"><ele>-8</ele><time>2026-09-07T17:47:22.669477Z</time></trkpt>
  <trkpt lat="37.4114231" lon="-121.9948854"><ele>-8</ele><time>2026-09-07T17:47:22.770799Z</time></trkpt>
  <trkpt lat="37.4114229" lon="-121.9948854"><ele>-8</ele><time>2026-09-07T17:47:22.871838Z</time></trkpt>
  <trkpt lat="37.4114230" lon="-121.9948847"><ele>-8</ele><time>2026-09-07T17:47:22.972881Z</time></trkpt>
  <trkpt lat="37.4114226" lon="-121.9948852"><ele>-8</ele><time>2026-09-07T17:47:23.053195Z</time></trkpt>
  <trkpt lat="37.4114223" lon="-121.9948858"><ele>-8</ele><time>2026-09-07T17:47:23.154106Z</time></trkpt>
  <trkpt lat="37.4114225" lon="-121.9948859"><ele>-8</ele><time>2026-09-07T17:47:23.254769Z</time></trkpt>
  <trkpt lat="37.4114232" lon="-121.9948852"><ele>-8</ele><time>2026-09-07T17:47:23.355354Z</time></trkpt>
  <trkpt lat="37.4114239" lon="-121.9948847"><ele>-8</ele><time>2026-09-07T17:47:23.455675Z</time></trkpt>
  <trkpt lat="37.4114245" lon="-121.9948847"><ele>-8</ele><time>2026-09-07T17:47:23.556813Z</time></trkpt>
  <trkpt lat="37.4114255" lon="-121.9948847"><ele>-8</ele><time>2026-09-07T17:47:23.657343Z</time></trkpt>
  <trkpt lat="37.4114259" lon="-121.9948848"><ele>-8</ele><time>2026-09-07T17:47:23.758138Z</time></trkpt>
  <trkpt lat="37.4114266" lon="-121.9948852"><ele>-8</ele><time>2026-09-07T17:47:23.858610Z</time></trkpt>
  <trkpt lat="37.4114265" lon="-121.9948856"><ele>-8</ele><time>2026-09-07T17:47:23.958818Z</time></trkpt>
  <trkpt lat="37.4114265" lon="-121.9948856"><ele>-8</ele><time>2026-09-07T17:47:23.996450Z</time></trkpt>
  <trkpt lat="37.4114264" lon="-121.9948862"><ele>-8</ele><time>2026-09-07T17:47:24.059601Z</time></trkpt>
  <trkpt lat="37.4114256" lon="-121.9948865"><ele>-7</ele><time>2026-09-07T17:47:24.160529Z</time></trkpt>
  <trkpt lat="37.4114251" lon="-121.9948865"><ele>-7</ele><time>2026-09-07T17:47:24.260889Z</time></trkpt>
  <trkpt lat="37.4114247" lon="-121.9948864"><ele>-7</ele><time>2026-09-07T17:47:24.361931Z</time></trkpt>
  <trkpt lat="37.4114244" lon="-121.9948859"><ele>-7</ele><time>2026-09-07T17:47:24.462952Z</time></trkpt>
  <trkpt lat="37.4114241" lon="-121.9948855"><ele>-7</ele><time>2026-09-07T17:47:24.563579Z</time></trkpt>
  <trkpt lat="37.4114234" lon="-121.9948858"><ele>-7</ele><time>2026-09-07T17:47:24.664224Z</time></trkpt>
  <trkpt lat="37.4114231" lon="-121.9948863"><ele>-7</ele><time>2026-09-07T17:47:24.765341Z</time></trkpt>
  <trkpt lat="37.4114231" lon="-121.9948865"><ele>-7</ele><time>2026-09-07T17:47:24.865774Z</time></trkpt>
  <trkpt lat="37.4114232" lon="-121.9948861"><ele>-7</ele><time>2026-09-07T17:47:24.966518Z</time></trkpt>
  <trkpt lat="37.4114232" lon="-121.9948855"><ele>-7</ele><time>2026-09-07T17:47:25.067569Z</time></trkpt>
  <trkpt lat="37.4114227" lon="-121.9948855"><ele>-7</ele><time>2026-09-07T17:47:25.167786Z</time></trkpt>
  <trkpt lat="37.4114222" lon="-121.9948858"><ele>-8</ele><time>2026-09-07T17:47:25.268622Z</time></trkpt>
  <trkpt lat="37.4114215" lon="-121.9948862"><ele>-8</ele><time>2026-09-07T17:47:25.369393Z</time></trkpt>
  <trkpt lat="37.4114213" lon="-121.9948863"><ele>-8</ele><time>2026-09-07T17:47:25.449502Z</time></trkpt>
  <trkpt lat="37.4114215" lon="-121.9948860"><ele>-8</ele><time>2026-09-07T17:47:25.550740Z</time></trkpt>
  <trkpt lat="37.4114218" lon="-121.9948861"><ele>-8</ele><time>2026-09-07T17:47:25.651611Z</time></trkpt>
  <trkpt lat="37.4114216" lon="-121.9948865"><ele>-8</ele><time>2026-09-07T17:47:25.752413Z</time></trkpt>
  <trkpt lat="37.4114214" lon="-121.9948877"><ele>-8</ele><time>2026-09-07T17:47:25.853907Z</time></trkpt>
  <trkpt lat="37.4114212" lon="-121.9948886"><ele>-8</ele><time>2026-09-07T17:47:25.954213Z</time></trkpt>
  <trkpt lat="37.4114208" lon="-121.9948897"><ele>-8</ele><time>2026-09-07T17:47:26.055147Z</time></trkpt>
  <trkpt lat="37.4114208" lon="-121.9948897"><ele>-8</ele><time>2026-09-07T17:47:26.128193Z</time></trkpt>
  <trkpt lat="37.4114212" lon="-121.9948898"><ele>-8</ele><time>2026-09-07T17:47:26.156012Z</time></trkpt>
  <trkpt lat="37.4114215" lon="-121.9948895"><ele>-8</ele><time>2026-09-07T17:47:26.257177Z</time></trkpt>
  <trkpt lat="37.4114220" lon="-121.9948891"><ele>-8</ele><time>2026-09-07T17:47:26.357924Z</time></trkpt>
  <trkpt lat="37.4114229" lon="-121.9948889"><ele>-8</ele><time>2026-09-07T17:47:26.459099Z</time></trkpt>
  <trkpt lat="37.4114237" lon="-121.9948883"><ele>-8</ele><time>2026-09-07T17:47:26.559769Z</time></trkpt>
  <trkpt lat="37.4114239" lon="-121.9948882"><ele>-8</ele><time>2026-09-07T17:47:26.660808Z</time></trkpt>
  <trkpt lat="37.4114235" lon="-121.9948885"><ele>-8</ele><time>2026-09-07T17:47:26.761216Z</time></trkpt>
  <trkpt lat="37.4114234" lon="-121.9948895"><ele>-8</ele><time>2026-09-07T17:47:26.861603Z</time></trkpt>
  <trkpt lat="37.4114233" lon="-121.9948903"><ele>-8</ele><time>2026-09-07T17:47:26.962782Z</time></trkpt>
  <trkpt lat="37.4114227" lon="-121.9948909"><ele>-8</ele><time>2026-09-07T17:47:27.063573Z</time></trkpt>
  <trkpt lat="37.4114222" lon="-121.9948912"><ele>-8</ele><time>2026-09-07T17:47:27.164162Z</time></trkpt>
  <trkpt lat="37.4114223" lon="-121.9948910"><ele>-8</ele><time>2026-09-07T17:47:27.264643Z</time></trkpt>
  <trkpt lat="37.4114221" lon="-121.9948914"><ele>-8</ele><time>2026-09-07T17:47:27.365055Z</time></trkpt>
  <trkpt lat="37.4114225" lon="-121.9948917"><ele>-8</ele><time>2026-09-07T17:47:27.467151Z</time></trkpt>
  <trkpt lat="37.4114231" lon="-121.9948920"><ele>-8</ele><time>2026-09-07T17:47:27.547531Z</time></trkpt>
  <trkpt lat="37.4114231" lon="-121.9948923"><ele>-8</ele><time>2026-09-07T17:47:27.648652Z</time></trkpt>
  <trkpt lat="37.4114237" lon="-121.9948921"><ele>-9</ele><time>2026-09-07T17:47:27.749338Z</time></trkpt>
  <trkpt lat="37.4114238" lon="-121.9948920"><ele>-9</ele><time>2026-09-07T17:47:27.850657Z</time></trkpt>
  <trkpt lat="37.4114241" lon="-121.9948919"><ele>-8</ele><time>2026-09-07T17:47:27.951043Z</time></trkpt>
  <trkpt lat="37.4114242" lon="-121.9948917"><ele>-8</ele><time>2026-09-07T17:47:28.051203Z</time></trkpt>
  <trkpt lat="37.4114242" lon="-121.9948913"><ele>-8</ele><time>2026-09-07T17:47:28.152071Z</time></trkpt>
  <trkpt lat="37.4114245" lon="-121.9948913"><ele>-8</ele><time>2026-09-07T17:47:28.252699Z</time></trkpt>
  <trkpt lat="37.4114245" lon="-121.9948913"><ele>-8</ele><time>2026-09-07T17:47:28.258406Z</time></trkpt>
  <trkpt lat="37.4114249" lon="-121.9948914"><ele>-8</ele><time>2026-09-07T17:47:28.353548Z</time></trkpt>
  <trkpt lat="37.4114249" lon="-121.9948915"><ele>-8</ele><time>2026-09-07T17:47:28.454569Z</time></trkpt>
  <trkpt lat="37.4114249" lon="-121.9948913"><ele>-9</ele><time>2026-09-07T17:47:28.555415Z</time></trkpt>
  <trkpt lat="37.4114254" lon="-121.9948912"><ele>-9</ele><time>2026-09-07T17:47:28.656390Z</time></trkpt>
  <trkpt lat="37.4114257" lon="-121.9948916"><ele>-9</ele><time>2026-09-07T17:47:28.757290Z</time></trkpt>
  <trkpt lat="37.4114251" lon="-121.9948923"><ele>-9</ele><time>2026-09-07T17:47:28.858461Z</time></trkpt>
  <trkpt lat="37.4114245" lon="-121.9948926"><ele>-9</ele><time>2026-09-07T17:47:28.959136Z</time></trkpt>
  <trkpt lat="37.4114233" lon="-121.9948923"><ele>-9</ele><time>2026-09-07T17:47:29.059989Z</time></trkpt>
  <trkpt lat="37.4114224" lon="-121.9948917"><ele>-8</ele><time>2026-09-07T17:47:29.160941Z</time></trkpt>
  <trkpt lat="37.4114221" lon="-121.9948913"><ele>-8</ele><time>2026-09-07T17:47:29.261922Z</time></trkpt>
  <trkpt lat="37.4114221" lon="-121.9948914"><ele>-8</ele><time>2026-09-07T17:47:29.362809Z</time></trkpt>
  <trkpt lat="37.4114222" lon="-121.9948917"><ele>-8</ele><time>2026-09-07T17:47:29.463527Z</time></trkpt>
  <trkpt lat="37.4114223" lon="-121.9948916"><ele>-8</ele><time>2026-09-07T17:47:29.563565Z</time></trkpt>
  <trkpt lat="37.4114230" lon="-121.9948912"><ele>-8</ele><time>2026-09-07T17:47:29.664325Z</time></trkpt>
  <trkpt lat="37.4114232" lon="-121.9948911"><ele>-8</ele><time>2026-09-07T17:47:29.765571Z</time></trkpt>
  <trkpt lat="37.4114235" lon="-121.9948908"><ele>-8</ele><time>2026-09-07T17:47:29.846072Z</time></trkpt>
  <trkpt lat="37.4114232" lon="-121.9948912"><ele>-8</ele><time>2026-09-07T17:47:30.047678Z</time></trkpt>
  <trkpt lat="37.4114234" lon="-121.9948912"><ele>-8</ele><time>2026-09-07T17:47:30.148908Z</time></trkpt>
  <trkpt lat="37.4114240" lon="-121.9948911"><ele>-8</ele><time>2026-09-07T17:47:30.250343Z</time></trkpt>
  <trkpt lat="37.4114242" lon="-121.9948911"><ele>-8</ele><time>2026-09-07T17:47:30.350718Z</time></trkpt>
  <trkpt lat="37.4114242" lon="-121.9948911"><ele>-8</ele><time>2026-09-07T17:47:30.391986Z</time></trkpt>
  <trkpt lat="37.4114240" lon="-121.9948908"><ele>-8</ele><time>2026-09-07T17:47:30.451348Z</time></trkpt>
  <trkpt lat="37.4114234" lon="-121.9948906"><ele>-8</ele><time>2026-09-07T17:47:30.552542Z</time></trkpt>
  <trkpt lat="37.4114224" lon="-121.9948901"><ele>-8</ele><time>2026-09-07T17:47:30.653641Z</time></trkpt>
  <trkpt lat="37.4114224" lon="-121.9948896"><ele>-8</ele><time>2026-09-07T17:47:30.754616Z</time></trkpt>
  <trkpt lat="37.4114228" lon="-121.9948888"><ele>-8</ele><time>2026-09-07T17:47:30.855071Z</time></trkpt>
  <trkpt lat="37.4114234" lon="-121.9948879"><ele>-8</ele><time>2026-09-07T17:47:30.955945Z</time></trkpt>
  <trkpt lat="37.4114239" lon="-121.9948878"><ele>-8</ele><time>2026-09-07T17:47:31.056992Z</time></trkpt>
  <trkpt lat="37.4114243" lon="-121.9948877"><ele>-8</ele><time>2026-09-07T17:47:31.157683Z</time></trkpt>
  <trkpt lat="37.4114243" lon="-121.9948881"><ele>-9</ele><time>2026-09-07T17:47:31.258522Z</time></trkpt>
  <trkpt lat="37.4114241" lon="-121.9948888"><ele>-9</ele><time>2026-09-07T17:47:31.358946Z</time></trkpt>
  <trkpt lat="37.4114244" lon="-121.9948892"><ele>-9</ele><time>2026-09-07T17:47:31.459340Z</time></trkpt>
  <trkpt lat="37.4114246" lon="-121.9948896"><ele>-9</ele><time>2026-09-07T17:47:31.559638Z</time></trkpt>
  <trkpt lat="37.4114250" lon="-121.9948895"><ele>-9</ele><time>2026-09-07T17:47:31.660016Z</time></trkpt>
  <trkpt lat="37.4114257" lon="-121.9948896"><ele>-9</ele><time>2026-09-07T17:47:31.760298Z</time></trkpt>
  <trkpt lat="37.4114267" lon="-121.9948899"><ele>-9</ele><time>2026-09-07T17:47:31.861591Z</time></trkpt>
  <trkpt lat="37.4114276" lon="-121.9948902"><ele>-9</ele><time>2026-09-07T17:47:31.961645Z</time></trkpt>
  <trkpt lat="37.4114283" lon="-121.9948903"><ele>-9</ele><time>2026-09-07T17:47:32.062127Z</time></trkpt>
  <trkpt lat="37.4114282" lon="-121.9948905"><ele>-9</ele><time>2026-09-07T17:47:32.142667Z</time></trkpt>
  <trkpt lat="37.4114280" lon="-121.9948907"><ele>-9</ele><time>2026-09-07T17:47:32.242824Z</time></trkpt>
  <trkpt lat="37.4114285" lon="-121.9948909"><ele>-9</ele><time>2026-09-07T17:47:32.343224Z</time></trkpt>
  <trkpt lat="37.4114296" lon="-121.9948911"><ele>-9</ele><time>2026-09-07T17:47:32.443566Z</time></trkpt>
  <trkpt lat="37.4114296" lon="-121.9948911"><ele>-9</ele><time>2026-09-07T17:47:32.511664Z</time></trkpt>
  <trkpt lat="37.4114308" lon="-121.9948912"><ele>-10</ele><time>2026-09-07T17:47:32.543732Z</time></trkpt>
  <trkpt lat="37.4114315" lon="-121.9948914"><ele>-10</ele><time>2026-09-07T17:47:32.644132Z</time></trkpt>
  <trkpt lat="37.4114319" lon="-121.9948915"><ele>-10</ele><time>2026-09-07T17:47:32.744590Z</time></trkpt>
  <trkpt lat="37.4114320" lon="-121.9948919"><ele>-10</ele><time>2026-09-07T17:47:32.844896Z</time></trkpt>
  <trkpt lat="37.4114320" lon="-121.9948922"><ele>-10</ele><time>2026-09-07T17:47:32.945051Z</time></trkpt>
  <trkpt lat="37.4114322" lon="-121.9948927"><ele>-10</ele><time>2026-09-07T17:47:33.045638Z</time></trkpt>
  <trkpt lat="37.4114325" lon="-121.9948929"><ele>-10</ele><time>2026-09-07T17:47:33.146055Z</time></trkpt>
  <trkpt lat="37.4114329" lon="-121.9948932"><ele>-10</ele><time>2026-09-07T17:47:33.246297Z</time></trkpt>
</trkseg></trk>
</gpx>